[{"OBJECT_NAME":"COSMOS 2350","OBJECT_ID":"1998-025A","EPOCH":"2026-03-05T20:57:21.525120","MEAN_MOTION":1.00284611,"ECCENTRICITY":0.00046633,"INCLINATION":13.9254,"RA_OF_ASC_NODE":4.5986,"ARG_OF_PERICENTER":195.1485,"MEAN_ANOMALY":350.3704,"EPHEMERIS_TYPE":0,"CLASSIFICATION_TYPE":"U","NORAD_CAT_ID":25315,"ELEMENT_SET_NO":999,"REV_AT_EPOCH":10197,"BSTAR":0,"MEAN_MOTION_DOT":-8.9e-7,"MEAN_MOTION_DDOT":0},{"OBJECT_NAME":"SL-12 R/B(2)","OBJECT_ID":"1998-025D","EPOCH":"2026-03-05T11:13:38.700192","MEAN_MOTION":1.00043902,"ECCENTRICITY":0.0029186,"INCLINATION":13.9491,"RA_OF_ASC_NODE":4.6394,"ARG_OF_PERICENTER":131.7183,"MEAN_ANOMALY":56.4103,"EPHEMERIS_TYPE":0,"CLASSIFICATION_TYPE":"U","NORAD_CAT_ID":25318,"ELEMENT_SET_NO":999,"REV_AT_EPOCH":10173,"BSTAR":0,"MEAN_MOTION_DOT":8.3e-7,"MEAN_MOTION_DDOT":0},{"OBJECT_NAME":"BADR-3 (ARABSAT-3A)","OBJECT_ID":"1999-009A","EPOCH":"2026-03-05T23:40:22.352448","MEAN_MOTION":1.00125281,"ECCENTRICITY":0.00074087,"INCLINATION":11.7679,"RA_OF_ASC_NODE":33.3065,"ARG_OF_PERICENTER":317.2763,"MEAN_ANOMALY":43.3126,"EPHEMERIS_TYPE":0,"CLASSIFICATION_TYPE":"U","NORAD_CAT_ID":25638,"ELEMENT_SET_NO":999,"REV_AT_EPOCH":9893,"BSTAR":0,"MEAN_MOTION_DOT":3.2e-7,"MEAN_MOTION_DDOT":0},{"OBJECT_NAME":"RADUGA-1 4","OBJECT_ID":"1999-010A","EPOCH":"2026-03-05T17:27:38.839968","MEAN_MOTION":1.00261019,"ECCENTRICITY":0.00074605,"INCLINATION":15.6123,"RA_OF_ASC_NODE":2.4879,"ARG_OF_PERICENTER":287.4594,"MEAN_ANOMALY":249.0127,"EPHEMERIS_TYPE":0,"CLASSIFICATION_TYPE":"U","NORAD_CAT_ID":25642,"ELEMENT_SET_NO":999,"REV_AT_EPOCH":9891,"BSTAR":0,"MEAN_MOTION_DOT":-3.76e-6,"MEAN_MOTION_DDOT":0},{"OBJECT_NAME":"TELKOM 1","OBJECT_ID":"1999-042A","EPOCH":"2026-03-06T00:39:44.151840","MEAN_MOTION":1.00249323,"ECCENTRICITY":0.00173038,"INCLINATION":7.4253,"RA_OF_ASC_NODE":67.4825,"ARG_OF_PERICENTER":257.5758,"MEAN_ANOMALY":292.3059,"EPHEMERIS_TYPE":0,"CLASSIFICATION_TYPE":"U","NORAD_CAT_ID":25880,"ELEMENT_SET_NO":999,"REV_AT_EPOCH":9735,"BSTAR":0,"MEAN_MOTION_DOT":-1.72e-6,"MEAN_MOTION_DDOT":0},{"OBJECT_NAME":"ABS-7","OBJECT_ID":"1999-046A","EPOCH":"2026-03-06T06:21:56.336832","MEAN_MOTION":0.99969664,"ECCENTRICITY":0.00046677,"INCLINATION":6.2185,"RA_OF_ASC_NODE":72.0107,"ARG_OF_PERICENTER":251.2161,"MEAN_ANOMALY":139.38,"EPHEMERIS_TYPE":0,"CLASSIFICATION_TYPE":"U","NORAD_CAT_ID":25894,"ELEMENT_SET_NO":999,"REV_AT_EPOCH":9605,"BSTAR":0,"MEAN_MOTION_DOT":1.13e-6,"MEAN_MOTION_DDOT":0},{"OBJECT_NAME":"YAMAL 102","OBJECT_ID":"1999-047B","EPOCH":"2026-03-06T02:01:06.348864","MEAN_MOTION":0.99995997,"ECCENTRICITY":0.00053129,"INCLINATION":13.6105,"RA_OF_ASC_NODE":13.4584,"ARG_OF_PERICENTER":332.9541,"MEAN_ANOMALY":216.4085,"EPHEMERIS_TYPE":0,"CLASSIFICATION_TYPE":"U","NORAD_CAT_ID":25897,"ELEMENT_SET_NO":999,"REV_AT_EPOCH":9696,"BSTAR":0,"MEAN_MOTION_DOT":-1.6e-7,"MEAN_MOTION_DDOT":0},{"OBJECT_NAME":"ABS-6","OBJECT_ID":"1999-053A","EPOCH":"2026-03-06T06:09:27.533952","MEAN_MOTION":1.00272104,"ECCENTRICITY":0.00030131,"INCLINATION":0.0418,"RA_OF_ASC_NODE":256.3489,"ARG_OF_PERICENTER":70.1507,"MEAN_ANOMALY":88.8657,"EPHEMERIS_TYPE":0,"CLASSIFICATION_TYPE":"U","NORAD_CAT_ID":25924,"ELEMENT_SET_NO":999,"REV_AT_EPOCH":9680,"BSTAR":0,"MEAN_MOTION_DOT":-1.24e-6,"MEAN_MOTION_DDOT":0},{"OBJECT_NAME":"UFO 10 (USA 146)","OBJECT_ID":"1999-063A","EPOCH":"2026-03-05T13:25:56.364096","MEAN_MOTION":1.00273577,"ECCENTRICITY":0.0005298,"INCLINATION":9.8499,"RA_OF_ASC_NODE":27.7851,"ARG_OF_PERICENTER":295.4637,"MEAN_ANOMALY":18.7027,"EPHEMERIS_TYPE":0,"CLASSIFICATION_TYPE":"U","NORAD_CAT_ID":25967,"ELEMENT_SET_NO":999,"REV_AT_EPOCH":9630,"BSTAR":0,"MEAN_MOTION_DOT":-1.92e-6,"MEAN_MOTION_DDOT":0},{"OBJECT_NAME":"GALAXY 10R (G-10R)","OBJECT_ID":"2000-002A","EPOCH":"2026-03-06T06:47:08.920032","MEAN_MOTION":0.99638576,"ECCENTRICITY":0.00039797,"INCLINATION":12.0115,"RA_OF_ASC_NODE":31.9946,"ARG_OF_PERICENTER":207.8408,"MEAN_ANOMALY":317.187,"EPHEMERIS_TYPE":0,"CLASSIFICATION_TYPE":"U","NORAD_CAT_ID":26056,"ELEMENT_SET_NO":999,"REV_AT_EPOCH":9530,"BSTAR":0,"MEAN_MOTION_DOT":-2.22e-6,"MEAN_MOTION_DDOT":0},{"OBJECT_NAME":"GARUDA 1","OBJECT_ID":"2000-011A","EPOCH":"2026-03-05T23:47:59.122464","MEAN_MOTION":0.9990415,"ECCENTRICITY":0.00052044,"INCLINATION":9.4007,"RA_OF_ASC_NODE":65.1423,"ARG_OF_PERICENTER":245.8229,"MEAN_ANOMALY":111.4,"EPHEMERIS_TYPE":0,"CLASSIFICATION_TYPE":"U","NORAD_CAT_ID":26089,"ELEMENT_SET_NO":999,"REV_AT_EPOCH":4062,"BSTAR":0,"MEAN_MOTION_DOT":-8.5e-7,"MEAN_MOTION_DDOT":0},{"OBJECT_NAME":"SL-12 R/B(2)","OBJECT_ID":"2000-013D","EPOCH":"2026-03-05T23:34:45.390720","MEAN_MOTION":1.00760292,"ECCENTRICITY":0.00063521,"INCLINATION":14.3084,"RA_OF_ASC_NODE":1.6044,"ARG_OF_PERICENTER":60.5077,"MEAN_ANOMALY":311.2212,"EPHEMERIS_TYPE":0,"CLASSIFICATION_TYPE":"U","NORAD_CAT_ID":26101,"ELEMENT_SET_NO":999,"REV_AT_EPOCH":9560,"BSTAR":0,"MEAN_MOTION_DOT":4.3e-7,"MEAN_MOTION_DDOT":0},{"OBJECT_NAME":"ASIASTAR","OBJECT_ID":"2000-016A","EPOCH":"2026-03-05T23:03:10.917792","MEAN_MOTION":1.00271002,"ECCENTRICITY":0.0004601,"INCLINATION":8.8905,"RA_OF_ASC_NODE":59.2465,"ARG_OF_PERICENTER":295.9632,"MEAN_ANOMALY":259.2815,"EPHEMERIS_TYPE":0,"CLASSIFICATION_TYPE":"U","NORAD_CAT_ID":26107,"ELEMENT_SET_NO":999,"REV_AT_EPOCH":9488,"BSTAR":0,"MEAN_MOTION_DOT":-3.37e-6,"MEAN_MOTION_DDOT":0},{"OBJECT_NAME":"GALAXY 4R (G-4R)","OBJECT_ID":"2000-020A","EPOCH":"2026-03-05T06:51:43.837920","MEAN_MOTION":0.99835071,"ECCENTRICITY":0.0006619,"INCLINATION":12.6102,"RA_OF_ASC_NODE":24.8319,"ARG_OF_PERICENTER":247.129,"MEAN_ANOMALY":293.4324,"EPHEMERIS_TYPE":0,"CLASSIFICATION_TYPE":"U","NORAD_CAT_ID":26298,"ELEMENT_SET_NO":999,"REV_AT_EPOCH":9458,"BSTAR":0,"MEAN_MOTION_DOT":-2.77e-6,"MEAN_MOTION_DDOT":0},{"OBJECT_NAME":"USA 149 (DSP 20)","OBJECT_ID":"2000-024A","EPOCH":"2026-03-06T01:11:26.113056","MEAN_MOTION":1.00277077,"ECCENTRICITY":0.00023115,"INCLINATION":13.093,"RA_OF_ASC_NODE":12.5762,"ARG_OF_PERICENTER":8.1503,"MEAN_ANOMALY":355.5636,"EPHEMERIS_TYPE":0,"CLASSIFICATION_TYPE":"U","NORAD_CAT_ID":26356,"ELEMENT_SET_NO":999,"REV_AT_EPOCH":3188,"BSTAR":0,"MEAN_MOTION_DOT":9.2e-7,"MEAN_MOTION_DDOT":0},{"OBJECT_NAME":"IUS R/B(2)","OBJECT_ID":"2000-024D","EPOCH":"2026-03-06T01:50:19.791744","MEAN_MOTION":0.99712854,"ECCENTRICITY":0.0005447,"INCLINATION":13.2436,"RA_OF_ASC_NODE":13.3111,"ARG_OF_PERICENTER":182.1099,"MEAN_ANOMALY":177.8906,"EPHEMERIS_TYPE":0,"CLASSIFICATION_TYPE":"U","NORAD_CAT_ID":26359,"ELEMENT_SET_NO":999,"REV_AT_EPOCH":2434,"BSTAR":0,"MEAN_MOTION_DOT":-6.4e-7,"MEAN_MOTION_DDOT":0},{"OBJECT_NAME":"GORIZONT 33","OBJECT_ID":"2000-029A","EPOCH":"2026-03-05T20:55:15.223872","MEAN_MOTION":1.0015703,"ECCENTRICITY":0.00031838,"INCLINATION":13.8245,"RA_OF_ASC_NODE":7.5519,"ARG_OF_PERICENTER":262.6533,"MEAN_ANOMALY":300.1717,"EPHEMERIS_TYPE":0,"CLASSIFICATION_TYPE":"U","NORAD_CAT_ID":26372,"ELEMENT_SET_NO":999,"REV_AT_EPOCH":9439,"BSTAR":0,"MEAN_MOTION_DOT":-2.51e-6,"MEAN_MOTION_DDOT":0}]
