COSMOS 2350             
1 25315U 98025A   26064.87316580 -.00000089  00000+0  00000+0 0  9992
2 25315  13.9254   4.5986 0004663 195.1485 350.3704  1.00284611101979
SL-12 R/B(2)            
1 25318U 98025D   26064.46780903  .00000083  00000+0  00000+0 0  9997
2 25318  13.9491   4.6394 0029186 131.7183  56.4103  1.00043902101734
BADR-3 (ARABSAT-3A)     
1 25638U 99009A   26064.98636982  .00000032  00000+0  00000+0 0  9993
2 25638  11.7679  33.3065 0007408 317.2763  43.3126  1.00125281 98933
RADUGA-1 4              
1 25642U 99010A   26064.72753287 -.00000376  00000+0  00000+0 0  9992
2 25642  15.6123   2.4879 0007460 287.4594 249.0127  1.00261019 98917
TELKOM 1                
1 25880U 99042A   26065.02759435 -.00000172  00000+0  00000+0 0  9990
2 25880   7.4253  67.4825 0017303 257.5758 292.3059  1.00249323 97359
ABS-7                   
1 25894U 99046A   26065.26523538  .00000113  00000+0  00000+0 0  9992
2 25894   6.2185  72.0107 0004667 251.2161 139.3800  0.99969664 96052
YAMAL 102               
1 25897U 99047B   26065.08410126 -.00000016  00000+0  00000+0 0  9997
2 25897  13.6105  13.4584 0005312 332.9541 216.4085  0.99995997 96964
ABS-6                   
1 25924U 99053A   26065.25656868 -.00000124  00000+0  00000+0 0  9999
2 25924   0.0418 256.3489 0003013  70.1507  88.8657  1.00272104 96803
UFO 10 (USA 146)        
1 25967U 99063A   26064.55968014 -.00000192  00000+0  00000+0 0  9993
2 25967   9.8499  27.7851 0005298 295.4637  18.7027  1.00273577 96305
GALAXY 10R (G-10R)      
1 26056U 00002A   26065.28274213 -.00000222  00000+0  00000+0 0  9994
2 26056  12.0115  31.9946 0003979 207.8408 317.1870  0.99638576 95307
GARUDA 1                
1 26089U 00011A   26064.99165651 -.00000085  00000+0  00000+0 0  9999
2 26089   9.4007  65.1423 0005204 245.8229 111.4000  0.99904150 40627
SL-12 R/B(2)            
1 26101U 00013D   26064.98246980  .00000043  00000+0  00000+0 0  9993
2 26101  14.3084   1.6044 0006352  60.5077 311.2212  1.00760292 95607
ASIASTAR                
1 26107U 00016A   26064.96054303 -.00000337  00000+0  00000+0 0  9993
2 26107   8.8905  59.2465 0004601 295.9632 259.2815  1.00271002 94880
GALAXY 4R (G-4R)        
1 26298U 00020A   26064.28592405 -.00000277  00000+0  00000+0 0  9997
2 26298  12.6102  24.8319 0006619 247.1290 293.4324  0.99835071 94580
USA 149 (DSP 20)        
1 26356U 00024A   26065.04960779  .00000092  00000+0  00000+0 0  9998
2 26356  13.0930  12.5762 0002311   8.1503 355.5636  1.00277077 31881
IUS R/B(2)              
1 26359U 00024D   26065.07661796 -.00000064  00000+0  00000+0 0  9991
2 26359  13.2436  13.3111 0005447 182.1099 177.8906  0.99712854 24342
GORIZONT 33             
1 26372U 00029A   26064.87170398 -.00000251  00000+0  00000+0 0  9999
2 26372  13.8245   7.5519 0003183 262.6533 300.1717  1.00157030 94395
